KUIPER-00016            
1 63732U 25088J   26004.35416412 -.00001206  00000+0 -12867-3 0  9999
2 63732  51.9021  36.0862 0011708 210.0030 150.0263 14.79944255 37804
KUIPER-00018            
1 63733U 25088K   26004.43419123  .00004697  00000+0  64640-3 0  9992
2 63733  51.9062  24.6924 0011742 237.4203 122.5626 14.79793563 37974
KUIPER-00019            
1 63734U 25088L   26003.08474345 -.00032898  00000+0 -43315-2 0  9991
2 63734  51.9035  29.2007 0007426 244.4519 115.5675 14.79675644 37795
KUIPER-00020            
1 63735U 25088M   26004.43145922  .00000608  00000+0  10894-3 0  9997
2 63735  51.9047  27.2320 0008290 233.7114 126.3083 14.79942609 38148
KUIPER-00021            
1 63736U 25088N   26004.36219610  .00006975  00000+0  94213-3 0  9996
2 63736  51.9025  28.5364 0005976 221.4717 138.5792 14.79966060 37955
KUIPER-00023            
1 63737U 25088P   26004.42876413  .00003365  00000+0  46991-3 0  9994
2 63737  51.9023  29.7071 0010594 244.5500 115.4366 14.79951261 38241
KUIPER-00024            
1 63738U 25088Q   26004.44213230 -.00005500  00000+0 -69366-3 0  9995
2 63738  51.9025  17.1977 0000528  85.7532 274.3491 14.79899322 38542
KUIPER-00025            
1 63739U 25088R   26004.43231550 -.00008192  00000+0 -10498-2 0  9991
2 63739  51.9034  25.7526 0000818  78.3396 281.7658 14.79815733 38288
