<?xml version="1.0" encoding="UTF-8"?>
<ndm xmlns:xsi="http://www.w3.org/2001/XMLSchema-instance" xsi:noNamespaceSchemaLocation="https://sanaregistry.org/r/ndmxml_unqualified/ndmxml-2.0.0-master-2.0.xsd">
<omm id="CCSDS_OMM_VERS" version="2.0">
<header><CREATION_DATE/><ORIGINATOR/></header><body><segment><metadata><OBJECT_NAME>KUIPER-00016</OBJECT_NAME><OBJECT_ID>2025-088J</OBJECT_ID><CENTER_NAME>EARTH</CENTER_NAME><REF_FRAME>TEME</REF_FRAME><TIME_SYSTEM>UTC</TIME_SYSTEM><MEAN_ELEMENT_THEORY>SGP4</MEAN_ELEMENT_THEORY></metadata><data><meanElements><EPOCH>2026-01-04T08:29:59.779968</EPOCH><MEAN_MOTION>14.79944255</MEAN_MOTION><ECCENTRICITY>.0011708</ECCENTRICITY><INCLINATION>51.9021</INCLINATION><RA_OF_ASC_NODE>36.0862</RA_OF_ASC_NODE><ARG_OF_PERICENTER>210.0030</ARG_OF_PERICENTER><MEAN_ANOMALY>150.0263</MEAN_ANOMALY></meanElements><tleParameters><EPHEMERIS_TYPE>0</EPHEMERIS_TYPE><CLASSIFICATION_TYPE>U</CLASSIFICATION_TYPE><NORAD_CAT_ID>63732</NORAD_CAT_ID><ELEMENT_SET_NO>999</ELEMENT_SET_NO><REV_AT_EPOCH>3780</REV_AT_EPOCH><BSTAR>-.12867E-3</BSTAR><MEAN_MOTION_DOT>-.1206E-4</MEAN_MOTION_DOT><MEAN_MOTION_DDOT>0</MEAN_MOTION_DDOT></tleParameters></data></segment></body></omm>
<omm id="CCSDS_OMM_VERS" version="2.0">
<header><CREATION_DATE/><ORIGINATOR/></header><body><segment><metadata><OBJECT_NAME>KUIPER-00018</OBJECT_NAME><OBJECT_ID>2025-088K</OBJECT_ID><CENTER_NAME>EARTH</CENTER_NAME><REF_FRAME>TEME</REF_FRAME><TIME_SYSTEM>UTC</TIME_SYSTEM><MEAN_ELEMENT_THEORY>SGP4</MEAN_ELEMENT_THEORY></metadata><data><meanElements><EPOCH>2026-01-04T10:25:14.122272</EPOCH><MEAN_MOTION>14.79793563</MEAN_MOTION><ECCENTRICITY>.0011742</ECCENTRICITY><INCLINATION>51.9062</INCLINATION><RA_OF_ASC_NODE>24.6924</RA_OF_ASC_NODE><ARG_OF_PERICENTER>237.4203</ARG_OF_PERICENTER><MEAN_ANOMALY>122.5626</MEAN_ANOMALY></meanElements><tleParameters><EPHEMERIS_TYPE>0</EPHEMERIS_TYPE><CLASSIFICATION_TYPE>U</CLASSIFICATION_TYPE><NORAD_CAT_ID>63733</NORAD_CAT_ID><ELEMENT_SET_NO>999</ELEMENT_SET_NO><REV_AT_EPOCH>3797</REV_AT_EPOCH><BSTAR>.6464E-3</BSTAR><MEAN_MOTION_DOT>.4697E-4</MEAN_MOTION_DOT><MEAN_MOTION_DDOT>0</MEAN_MOTION_DDOT></tleParameters></data></segment></body></omm>
<omm id="CCSDS_OMM_VERS" version="2.0">
<header><CREATION_DATE/><ORIGINATOR/></header><body><segment><metadata><OBJECT_NAME>KUIPER-00019</OBJECT_NAME><OBJECT_ID>2025-088L</OBJECT_ID><CENTER_NAME>EARTH</CENTER_NAME><REF_FRAME>TEME</REF_FRAME><TIME_SYSTEM>UTC</TIME_SYSTEM><MEAN_ELEMENT_THEORY>SGP4</MEAN_ELEMENT_THEORY></metadata><data><meanElements><EPOCH>2026-01-03T02:02:01.834080</EPOCH><MEAN_MOTION>14.79675644</MEAN_MOTION><ECCENTRICITY>.00074267</ECCENTRICITY><INCLINATION>51.9035</INCLINATION><RA_OF_ASC_NODE>29.2007</RA_OF_ASC_NODE><ARG_OF_PERICENTER>244.4519</ARG_OF_PERICENTER><MEAN_ANOMALY>115.5675</MEAN_ANOMALY></meanElements><tleParameters><EPHEMERIS_TYPE>0</EPHEMERIS_TYPE><CLASSIFICATION_TYPE>U</CLASSIFICATION_TYPE><NORAD_CAT_ID>63734</NORAD_CAT_ID><ELEMENT_SET_NO>999</ELEMENT_SET_NO><REV_AT_EPOCH>3779</REV_AT_EPOCH><BSTAR>-.43315031E-2</BSTAR><MEAN_MOTION_DOT>-.32898E-3</MEAN_MOTION_DOT><MEAN_MOTION_DDOT>0</MEAN_MOTION_DDOT></tleParameters></data></segment></body></omm>
<omm id="CCSDS_OMM_VERS" version="2.0">
<header><CREATION_DATE/><ORIGINATOR/></header><body><segment><metadata><OBJECT_NAME>KUIPER-00020</OBJECT_NAME><OBJECT_ID>2025-088M</OBJECT_ID><CENTER_NAME>EARTH</CENTER_NAME><REF_FRAME>TEME</REF_FRAME><TIME_SYSTEM>UTC</TIME_SYSTEM><MEAN_ELEMENT_THEORY>SGP4</MEAN_ELEMENT_THEORY></metadata><data><meanElements><EPOCH>2026-01-04T10:21:18.076608</EPOCH><MEAN_MOTION>14.79942609</MEAN_MOTION><ECCENTRICITY>.000829</ECCENTRICITY><INCLINATION>51.9047</INCLINATION><RA_OF_ASC_NODE>27.2320</RA_OF_ASC_NODE><ARG_OF_PERICENTER>233.7114</ARG_OF_PERICENTER><MEAN_ANOMALY>126.3083</MEAN_ANOMALY></meanElements><tleParameters><EPHEMERIS_TYPE>0</EPHEMERIS_TYPE><CLASSIFICATION_TYPE>U</CLASSIFICATION_TYPE><NORAD_CAT_ID>63735</NORAD_CAT_ID><ELEMENT_SET_NO>999</ELEMENT_SET_NO><REV_AT_EPOCH>3814</REV_AT_EPOCH><BSTAR>.10894E-3</BSTAR><MEAN_MOTION_DOT>.608E-5</MEAN_MOTION_DOT><MEAN_MOTION_DDOT>0</MEAN_MOTION_DDOT></tleParameters></data></segment></body></omm>
<omm id="CCSDS_OMM_VERS" version="2.0">
<header><CREATION_DATE/><ORIGINATOR/></header><body><segment><metadata><OBJECT_NAME>KUIPER-00021</OBJECT_NAME><OBJECT_ID>2025-088N</OBJECT_ID><CENTER_NAME>EARTH</CENTER_NAME><REF_FRAME>TEME</REF_FRAME><TIME_SYSTEM>UTC</TIME_SYSTEM><MEAN_ELEMENT_THEORY>SGP4</MEAN_ELEMENT_THEORY></metadata><data><meanElements><EPOCH>2026-01-04T08:41:33.743040</EPOCH><MEAN_MOTION>14.79966060</MEAN_MOTION><ECCENTRICITY>.0005976</ECCENTRICITY><INCLINATION>51.9025</INCLINATION><RA_OF_ASC_NODE>28.5364</RA_OF_ASC_NODE><ARG_OF_PERICENTER>221.4717</ARG_OF_PERICENTER><MEAN_ANOMALY>138.5792</MEAN_ANOMALY></meanElements><tleParameters><EPHEMERIS_TYPE>0</EPHEMERIS_TYPE><CLASSIFICATION_TYPE>U</CLASSIFICATION_TYPE><NORAD_CAT_ID>63736</NORAD_CAT_ID><ELEMENT_SET_NO>999</ELEMENT_SET_NO><REV_AT_EPOCH>3795</REV_AT_EPOCH><BSTAR>.94213E-3</BSTAR><MEAN_MOTION_DOT>.6975E-4</MEAN_MOTION_DOT><MEAN_MOTION_DDOT>0</MEAN_MOTION_DDOT></tleParameters></data></segment></body></omm>
<omm id="CCSDS_OMM_VERS" version="2.0">
<header><CREATION_DATE/><ORIGINATOR/></header><body><segment><metadata><OBJECT_NAME>KUIPER-00023</OBJECT_NAME><OBJECT_ID>2025-088P</OBJECT_ID><CENTER_NAME>EARTH</CENTER_NAME><REF_FRAME>TEME</REF_FRAME><TIME_SYSTEM>UTC</TIME_SYSTEM><MEAN_ELEMENT_THEORY>SGP4</MEAN_ELEMENT_THEORY></metadata><data><meanElements><EPOCH>2026-01-04T10:17:25.220832</EPOCH><MEAN_MOTION>14.79951261</MEAN_MOTION><ECCENTRICITY>.0010594</ECCENTRICITY><INCLINATION>51.9023</INCLINATION><RA_OF_ASC_NODE>29.7071</RA_OF_ASC_NODE><ARG_OF_PERICENTER>244.5500</ARG_OF_PERICENTER><MEAN_ANOMALY>115.4366</MEAN_ANOMALY></meanElements><tleParameters><EPHEMERIS_TYPE>0</EPHEMERIS_TYPE><CLASSIFICATION_TYPE>U</CLASSIFICATION_TYPE><NORAD_CAT_ID>63737</NORAD_CAT_ID><ELEMENT_SET_NO>999</ELEMENT_SET_NO><REV_AT_EPOCH>3824</REV_AT_EPOCH><BSTAR>.46991E-3</BSTAR><MEAN_MOTION_DOT>.3365E-4</MEAN_MOTION_DOT><MEAN_MOTION_DDOT>0</MEAN_MOTION_DDOT></tleParameters></data></segment></body></omm>
<omm id="CCSDS_OMM_VERS" version="2.0">
<header><CREATION_DATE/><ORIGINATOR/></header><body><segment><metadata><OBJECT_NAME>KUIPER-00024</OBJECT_NAME><OBJECT_ID>2025-088Q</OBJECT_ID><CENTER_NAME>EARTH</CENTER_NAME><REF_FRAME>TEME</REF_FRAME><TIME_SYSTEM>UTC</TIME_SYSTEM><MEAN_ELEMENT_THEORY>SGP4</MEAN_ELEMENT_THEORY></metadata><data><meanElements><EPOCH>2026-01-04T10:36:40.230720</EPOCH><MEAN_MOTION>14.79899322</MEAN_MOTION><ECCENTRICITY>.0000528</ECCENTRICITY><INCLINATION>51.9025</INCLINATION><RA_OF_ASC_NODE>17.1977</RA_OF_ASC_NODE><ARG_OF_PERICENTER>85.7532</ARG_OF_PERICENTER><MEAN_ANOMALY>274.3491</MEAN_ANOMALY></meanElements><tleParameters><EPHEMERIS_TYPE>0</EPHEMERIS_TYPE><CLASSIFICATION_TYPE>U</CLASSIFICATION_TYPE><NORAD_CAT_ID>63738</NORAD_CAT_ID><ELEMENT_SET_NO>999</ELEMENT_SET_NO><REV_AT_EPOCH>3854</REV_AT_EPOCH><BSTAR>-.69366E-3</BSTAR><MEAN_MOTION_DOT>-.55E-4</MEAN_MOTION_DOT><MEAN_MOTION_DDOT>0</MEAN_MOTION_DDOT></tleParameters></data></segment></body></omm>
<omm id="CCSDS_OMM_VERS" version="2.0">
<header><CREATION_DATE/><ORIGINATOR/></header><body><segment><metadata><OBJECT_NAME>KUIPER-00025</OBJECT_NAME><OBJECT_ID>2025-088R</OBJECT_ID><CENTER_NAME>EARTH</CENTER_NAME><REF_FRAME>TEME</REF_FRAME><TIME_SYSTEM>UTC</TIME_SYSTEM><MEAN_ELEMENT_THEORY>SGP4</MEAN_ELEMENT_THEORY></metadata><data><meanElements><EPOCH>2026-01-04T10:22:32.059200</EPOCH><MEAN_MOTION>14.79815733</MEAN_MOTION><ECCENTRICITY>.0000818</ECCENTRICITY><INCLINATION>51.9034</INCLINATION><RA_OF_ASC_NODE>25.7526</RA_OF_ASC_NODE><ARG_OF_PERICENTER>78.3396</ARG_OF_PERICENTER><MEAN_ANOMALY>281.7658</MEAN_ANOMALY></meanElements><tleParameters><EPHEMERIS_TYPE>0</EPHEMERIS_TYPE><CLASSIFICATION_TYPE>U</CLASSIFICATION_TYPE><NORAD_CAT_ID>63739</NORAD_CAT_ID><ELEMENT_SET_NO>999</ELEMENT_SET_NO><REV_AT_EPOCH>3828</REV_AT_EPOCH><BSTAR>-.10498E-2</BSTAR><MEAN_MOTION_DOT>-.8192E-4</MEAN_MOTION_DOT><MEAN_MOTION_DDOT>0</MEAN_MOTION_DDOT></tleParameters></data></segment></body></omm>

</ndm>
